0 IRIDIUM 14
1 25777U 99032A   13282.49170769  .00000363  00000-0  79598-4 0  6092
2 25777 086.5136 066.8600 0002220 109.4853 326.3166 14.54919801760979
0 IRIDIUM 14
1 25777U 99032A   13282.49170769  .00000363  00000-0  79598-4 0  6104
2 25777 086.5136 066.8600 0002220 109.4853 326.3166 14.54919801760979
0 IRIDIUM 14
1 25777U 99032A   13283.51703738  .00000384  00000-0  84438-4 0  6119
2 25777 086.5137 066.4311 0002230 109.7585 292.9591 14.54921075761125
0 IRIDIUM 14
1 25777U 99032A   13284.48419653  .00000449  00000-0  99504-4 0  6129
2 25777 086.5140 066.0266 0002228 109.5729 315.5809 14.54922287761264
0 IRIDIUM 14
1 25777U 99032A   13285.44582750  .00000432  00000-0  95649-4 0  6134
2 25777 086.5142 065.6244 0002237 109.8088 308.8496 14.54923478761404
0 IRIDIUM 14
1 25777U 99032A   13286.47421925  .00000504  00000-0  11235-3 0  6143
2 25777 086.5145 065.1943 0002245 109.6180 291.9993 14.54924652761553
0 IRIDIUM 14
1 25777U 99032A   13287.43517546  .00000584  00000-0  13108-3 0  6155
2 25777 086.5147 064.7924 0002248 109.6541 281.9435 14.54925712761696
0 IRIDIUM 14
1 25777U 99032A   13288.46873589  .00000865  00000-0  19646-3 0  6167
2 25777 086.5150 064.3602 0002242 109.0246 292.5961 14.54928161761849
0 IRIDIUM 14
1 25777U 99032A   13289.42987300  .00000653  00000-0  14699-3 0  6170
2 25777 086.5151 063.9583 0002248 109.3741 283.1852 14.54930219761989
0 IRIDIUM 14
1 25777U 99032A   13290.46327971  .00000748  00000-0  16907-3 0  6188
2 25777 086.5153 063.5263 0002244 109.1835 292.6082 14.54931487762136
0 IRIDIUM 14
1 25777U 99032A   13291.42409959  .00000760  00000-0  17196-3 0  6198
2 25777 086.5154 063.1247 0002245 109.3767 281.7060 14.54932699762278
0 IRIDIUM 14
1 25777U 99032A   13292.46238413  .00000819  00000-0  18569-3 0  6200
2 25777 086.5154 062.6907 0002231 109.3026 316.5558 14.54934130762426
0 IRIDIUM 14
1 25777U 99032A   13293.42425355  .00000886  00000-0  20131-3 0  6213
2 25777 086.5154 062.2886 0002230 109.3239 311.3286 14.54935819762564
0 IRIDIUM 14
1 25777U 99032A   13294.45710579  .00000847  00000-0  19215-3 0  6221
2 25777 086.5154 061.8569 0002223 109.7477 317.2555 14.54937836762719
0 IRIDIUM 14
1 25777U 99032A   13295.41873417  .00000918  00000-0  20869-3 0  6236
2 25777 086.5155 061.4550 0002225 109.6772 310.8699 14.54939651762855
